[{"OBJECT_NAME":"STARLINK-34818","OBJECT_ID":"2025-179D","EPOCH":"2026-03-09T17:06:09.215424","MEAN_MOTION":15.05647088,"ECCENTRICITY":0.00012755,"INCLINATION":97.6024,"RA_OF_ASC_NODE":113.0164,"ARG_OF_PERICENTER":89.464,"MEAN_ANOMALY":270.6733,"EPHEMERIS_TYPE":0,"CLASSIFICATION_TYPE":"U","NORAD_CAT_ID":65238,"ELEMENT_SET_NO":999,"REV_AT_EPOCH":3155,"BSTAR":6.6697902e-5,"MEAN_MOTION_DOT":9.02e-6,"MEAN_MOTION_DDOT":0},{"OBJECT_NAME":"CZ-6A DEB","OBJECT_ID":"2024-140XA","EPOCH":"2026-03-09T13:38:46.141440","MEAN_MOTION":14.97207457,"ECCENTRICITY":0.0079782,"INCLINATION":88.8472,"RA_OF_ASC_NODE":268.9899,"ARG_OF_PERICENTER":170.4337,"MEAN_ANOMALY":189.8439,"EPHEMERIS_TYPE":0,"CLASSIFICATION_TYPE":"U","NORAD_CAT_ID":61385,"ELEMENT_SET_NO":999,"REV_AT_EPOCH":8131,"BSTAR":0.0034461,"MEAN_MOTION_DOT":0.00042743,"MEAN_MOTION_DDOT":0}]
